start=new Date('2022-03-30T00:00:00.000Z').valueOf();
sats=[{"ECCENTRICITY":"0.00015880","INCLINATION":"53.0527","DECAY_DATE":null,"LAUNCH_DATE":"2019-11-11","MEAN_MOTION":"15.06388995","PERIOD":"95.593","CENTER_NAME":"EARTH","CLASSIFICATION_TYPE":"U","SITE":"AFETR","RCS_SIZE":"LARGE","RA_OF_ASC_NODE":"175.7672","GP_ID":"200017727","COUNTRY_CODE":"US","EPHEMERIS_TYPE":"0","NORAD_CAT_ID":"44731","APOAPSIS":"548.347","TIME_SYSTEM":"UTC","MEAN_ANOMALY":"293.9556","MEAN_ELEMENT_THEORY":"SGP4","FILE":"3379484","OBJECT_TYPE":"PAYLOAD","OBJECT_NAME":"STARLINK-1026","BSTAR":"-0.00016968000000","MEAN_MOTION_DDOT":"0.0000000000000","TLE_LINE1":"1 44731U 19074U   22088.63169281 -.00002807  00000-0 -16968-3 0  9998","EPOCH":"2022-03-29T15:09:38.258784","MEAN_MOTION_DOT":"-0.00002807","ELEMENT_SET_NO":"999","TLE_LINE2":"2 44731  53.0527 175.7672 0001588  66.1599 293.9556 15.06388995131543","ARG_OF_PERICENTER":"66.1599","SEMIMAJOR_AXIS":"6925.382","PERIAPSIS":"546.148","REF_FRAME":"TEME","REV_AT_EPOCH":"13154","OBJECT_ID":"2019-074U"},{"EPHEMERIS_TYPE":"0","COUNTRY_CODE":"US","TIME_SYSTEM":"UTC","NORAD_CAT_ID":"44732","APOAPSIS":"548.638","FILE":"3379484","MEAN_ELEMENT_THEORY":"SGP4","MEAN_ANOMALY":"297.0741","OBJECT_NAME":"STARLINK-1027","OBJECT_TYPE":"PAYLOAD","LAUNCH_DATE":"2019-11-11","DECAY_DATE":null,"ECCENTRICITY":"0.00019460","INCLINATION":"53.0530","PERIOD":"95.594","MEAN_MOTION":"15.06374939","RCS_SIZE":"LARGE","SITE":"AFETR","CLASSIFICATION_TYPE":"U","CENTER_NAME":"EARTH","GP_ID":"200017975","RA_OF_ASC_NODE":"195.2354","ARG_OF_PERICENTER":"63.0446","TLE_LINE2":"2 44732  53.0530 195.2354 0001946  63.0446 297.0741 15.06374939131282","ELEMENT_SET_NO":"999","SEMIMAJOR_AXIS":"6925.425","REV_AT_EPOCH":"13128","REF_FRAME":"TEME","PERIAPSIS":"545.943","OBJECT_ID":"2019-074V","BSTAR":"-0.00066674000000","MEAN_MOTION_DDOT":"0.0000000000000","EPOCH":"2022-03-29T18:02:07.216224","TLE_LINE1":"1 44732U 19074V   22088.75147241 -.00010192  00000-0 -66674-3 0  9999","MEAN_MOTION_DOT":"-0.00010192"},{"MEAN_MOTION_DOT":"-0.00002026","BSTAR":"-0.00011722000000","MEAN_MOTION_DDOT":"0.0000000000000","TLE_LINE1":"1 44733U 19074W   22088.88233576 -.00002026  00000-0 -11722-3 0  9992","EPOCH":"2022-03-29T21:10:33.809664","PERIAPSIS":"546.192","REF_FRAME":"TEME","REV_AT_EPOCH":"13158","OBJECT_ID":"2019-074W","ELEMENT_SET_NO":"999","TLE_LINE2":"2 44733  53.0526 174.6596 0001559  58.4362 301.6779 15.06380909131582","ARG_OF_PERICENTER":"58.4362","SEMIMAJOR_AXIS":"6925.407","CENTER_NAME":"EARTH","CLASSIFICATION_TYPE":"U","SITE":"AFETR","RCS_SIZE":"LARGE","RA_OF_ASC_NODE":"174.6596","GP_ID":"200017225","INCLINATION":"53.0526","ECCENTRICITY":"0.00015590","DECAY_DATE":null,"LAUNCH_DATE":"2019-11-11","MEAN_MOTION":"15.06380909","PERIOD":"95.593","MEAN_ANOMALY":"301.6779","MEAN_ELEMENT_THEORY":"SGP4","FILE":"3379484","OBJECT_TYPE":"PAYLOAD","OBJECT_NAME":"STARLINK-1028","COUNTRY_CODE":"US","EPHEMERIS_TYPE":"0","NORAD_CAT_ID":"44733","APOAPSIS":"548.352","TIME_SYSTEM":"UTC"},{"EPOCH":"2022-03-29T19:56:15.039168","TLE_LINE1":"1 44734U 19074X   22088.83072962  .00004078  00000-0  29248-3 0  9997","MEAN_MOTION_DDOT":"0.0000000000000","BSTAR":"0.00029248000000","MEAN_MOTION_DOT":"0.00004078","SEMIMAJOR_AXIS":"6925.352","ARG_OF_PERICENTER":"69.4691","TLE_LINE2":"2 44734  53.0555  94.8868 0001473  69.4691 290.6456 15.06398972132671","ELEMENT_SET_NO":"999","OBJECT_ID":"2019-074X","REV_AT_EPOCH":"13267","REF_FRAME":"TEME","PERIAPSIS":"546.197","PERIOD":"95.592","MEAN_MOTION":"15.06398972","LAUNCH_DATE":"2019-11-11","DECAY_DATE":null,"INCLINATION":"53.0555","ECCENTRICITY":"0.00014730","GP_ID":"200017475","RA_OF_ASC_NODE":"94.8868","RCS_SIZE":"LARGE","SITE":"AFETR","CLASSIFICATION_TYPE":"U","CENTER_NAME":"EARTH","TIME_SYSTEM":"UTC","NORAD_CAT_ID":"44734","APOAPSIS":"548.237","EPHEMERIS_TYPE":"0","COUNTRY_CODE":"US","OBJECT_NAME":"STARLINK-1029","OBJECT_TYPE":"PAYLOAD","FILE":"3379484","MEAN_ELEMENT_THEORY":"SGP4","MEAN_ANOMALY":"290.6456"},{"GP_ID":"200018227","RA_OF_ASC_NODE":"195.2010","RCS_SIZE":"LARGE","SITE":"AFETR","CLASSIFICATION_TYPE":"U","CENTER_NAME":"EARTH","PERIOD":"95.592","MEAN_MOTION":"15.06405833","LAUNCH_DATE":"2019-11-11","DECAY_DATE":null,"INCLINATION":"53.0529","ECCENTRICITY":"0.00014610","OBJECT_NAME":"STARLINK-1030","OBJECT_TYPE":"PAYLOAD","FILE":"3379484","MEAN_ELEMENT_THEORY":"SGP4","MEAN_ANOMALY":"303.4450","TIME_SYSTEM":"UTC","NORAD_CAT_ID":"44735","APOAPSIS":"548.207","EPHEMERIS_TYPE":"0","COUNTRY_CODE":"US","MEAN_MOTION_DOT":"0.00001220","EPOCH":"2022-03-29T18:12:42.422112","TLE_LINE1":"1 44735U 19074Y   22088.75882433  .00001220  00000-0  10074-3 0  9994","BSTAR":"0.00010074000000","MEAN_MOTION_DDOT":"0.0000000000000","OBJECT_ID":"2019-074Y","REV_AT_EPOCH":"13128","REF_FRAME":"TEME","PERIAPSIS":"546.184","SEMIMAJOR_AXIS":"6925.331","ARG_OF_PERICENTER":"56.6678","TLE_LINE2":"2 44735  53.0529 195.2010 0001461  56.6678 303.4450 15.06405833131286","ELEMENT_SET_NO":"999"},{"EPOCH":"2022-03-29T13:47:21.795648","TLE_LINE1":"1 44736U 19074Z   22088.57455782  .00002157  00000-0  16371-3 0  9994","BSTAR":"0.00016371000000","MEAN_MOTION_DDOT":"0.0000000000000","MEAN_MOTION_DOT":"0.00002157","SEMIMAJOR_AXIS":"6925.376","ARG_OF_PERICENTER":"59.4818","TLE_LINE2":"2 44736  53.0543 196.0465 0001390  59.4818 300.6308 15.06390899131268","ELEMENT_SET_NO":"999","OBJECT_ID":"2019-074Z","REV_AT_EPOCH":"13126","REF_FRAME":"TEME","PERIAPSIS":"546.279","PERIOD":"95.593","MEAN_MOTION":"15.06390899","LAUNCH_DATE":"2019-11-11","DECAY_DATE":null,"INCLINATION":"53.0543","ECCENTRICITY":"0.00013900","GP_ID":"199988221","RA_OF_ASC_NODE":"196.0465","SITE":"AFETR","RCS_SIZE":"LARGE","CENTER_NAME":"EARTH","CLASSIFICATION_TYPE":"U","TIME_SYSTEM":"UTC","APOAPSIS":"548.204","NORAD_CAT_ID":"44736","EPHEMERIS_TYPE":"0","COUNTRY_CODE":"US","OBJECT_NAME":"STARLINK-1031","OBJECT_TYPE":"PAYLOAD","FILE":"3379323","MEAN_ELEMENT_THEORY":"SGP4","MEAN_ANOMALY":"300.6308"},{"TIME_SYSTEM":"UTC","NORAD_CAT_ID":"44737","APOAPSIS":"548.259","COUNTRY_CODE":"US","EPHEMERIS_TYPE":"0","OBJECT_TYPE":"PAYLOAD","OBJECT_NAME":"STARLINK-1032","MEAN_ANOMALY":"303.7381","FILE":"3379484","MEAN_ELEMENT_THEORY":"SGP4","PERIOD":"95.593","MEAN_MOTION":"15.06392224","DECAY_DATE":null,"ECCENTRICITY":"0.00014750","INCLINATION":"53.0550","LAUNCH_DATE":"2019-11-11","GP_ID":"200016726","RA_OF_ASC_NODE":"195.1022","CLASSIFICATION_TYPE":"U","CENTER_NAME":"EARTH","SITE":"AFETR","RCS_SIZE":"LARGE","SEMIMAJOR_AXIS":"6925.372","TLE_LINE2":"2 44737  53.0550 195.1022 0001475  56.3748 303.7381 15.06392224131290","ELEMENT_SET_NO":"999","ARG_OF_PERICENTER":"56.3748","OBJECT_ID":"2019-074AA","PERIAPSIS":"546.216","REV_AT_EPOCH":"13129","REF_FRAME":"TEME","TLE_LINE1":"1 44737U 19074AA  22088.78464772 -.00000800  00000-0 -34813-4 0  9994","EPOCH":"2022-03-29T18:49:53.563008","BSTAR":"-0.00003481300000","MEAN_MOTION_DDOT":"0.0000000000000","MEAN_MOTION_DOT":"-0.00000800"},{"LAUNCH_DATE":"2019-11-11","DECAY_DATE":null,"INCLINATION":"53.0564","ECCENTRICITY":"0.00014110","PERIOD":"95.593","MEAN_MOTION":"15.06388956","RCS_SIZE":"LARGE","SITE":"AFETR","CLASSIFICATION_TYPE":"U","CENTER_NAME":"EARTH","GP_ID":"200016976","RA_OF_ASC_NODE":"195.1593","EPHEMERIS_TYPE":"0","COUNTRY_CODE":"US","TIME_SYSTEM":"UTC","NORAD_CAT_ID":"44738","APOAPSIS":"548.225","FILE":"3379484","MEAN_ELEMENT_THEORY":"SGP4","MEAN_ANOMALY":"295.7609","OBJECT_NAME":"STARLINK-1033","OBJECT_TYPE":"PAYLOAD","BSTAR":"-0.00003587900000","MEAN_MOTION_DDOT":"0.0000000000000","EPOCH":"2022-03-29T18:28:40.975680","TLE_LINE1":"1 44738U 19074AB  22088.76991870 -.00000816  00000-0 -35879-4 0  9997","MEAN_MOTION_DOT":"-0.00000816","ARG_OF_PERICENTER":"64.3525","TLE_LINE2":"2 44738  53.0564 195.1593 0001411  64.3525 295.7609 15.06388956131280","ELEMENT_SET_NO":"999","SEMIMAJOR_AXIS":"6925.382","REV_AT_EPOCH":"13128","REF_FRAME":"TEME","PERIAPSIS":"546.270","OBJECT_ID":"2019-074AB"},{"MEAN_MOTION_DOT":"0.00021368","EPOCH":"2022-03-29T13:15:20.779776","TLE_LINE1":"1 44739U 19074AC  22088.55232384  .00021368  00000-0  12786-2 0  9996","BSTAR":"0.00127860000000","MEAN_MOTION_DDOT":"0.0000000000000","OBJECT_ID":"2019-074AC","REV_AT_EPOCH":"13130","REF_FRAME":"TEME","PERIAPSIS":"532.498","SEMIMAJOR_AXIS":"6911.292","ARG_OF_PERICENTER":"39.4846","TLE_LINE2":"2 44739  52.9974 189.8125 0000954  39.4846 320.6213 15.10997874131307","ELEMENT_SET_NO":"999","GP_ID":"199988850","RA_OF_ASC_NODE":"189.8125","RCS_SIZE":"LARGE","SITE":"AFETR","CENTER_NAME":"EARTH","CLASSIFICATION_TYPE":"U","PERIOD":"95.301","MEAN_MOTION":"15.10997874","LAUNCH_DATE":"2019-11-11","DECAY_DATE":null,"INCLINATION":"52.9974","ECCENTRICITY":"0.00009540","OBJECT_NAME":"STARLINK-1034","OBJECT_TYPE":"PAYLOAD","FILE":"3379323","MEAN_ELEMENT_THEORY":"SGP4","MEAN_ANOMALY":"320.6213","TIME_SYSTEM":"UTC","NORAD_CAT_ID":"44739","APOAPSIS":"533.817","EPHEMERIS_TYPE":"0","COUNTRY_CODE":"US"},{"NORAD_CAT_ID":"44740","APOAPSIS":"548.306","TIME_SYSTEM":"UTC","COUNTRY_CODE":"US","EPHEMERIS_TYPE":"0","OBJECT_TYPE":"PAYLOAD","OBJECT_NAME":"STARLINK-1035","MEAN_ANOMALY":"304.5312","MEAN_ELEMENT_THEORY":"SGP4","FILE":"3379323","MEAN_MOTION":"15.06390334","PERIOD":"95.593","INCLINATION":"53.0544","ECCENTRICITY":"0.00015340","DECAY_DATE":null,"LAUNCH_DATE":"2019-11-11","RA_OF_ASC_NODE":"196.0023","GP_ID":"199987734","CENTER_NAME":"EARTH","CLASSIFICATION_TYPE":"U","RCS_SIZE":"LARGE","SITE":"AFETR","SEMIMAJOR_AXIS":"6925.378","ELEMENT_SET_NO":"999","TLE_LINE2":"2 44740  53.0544 196.0023 0001534  55.5822 304.5312 15.06390334131268","ARG_OF_PERICENTER":"55.5822","OBJECT_ID":"2019-074AD","PERIAPSIS":"546.181","REF_FRAME":"TEME","REV_AT_EPOCH":"13126","TLE_LINE1":"1 44740U 19074AD  22088.58193571  .00000424  00000-0  47362-4 0  9995","EPOCH":"2022-03-29T13:57:59.245344","BSTAR":"0.00004736200000","MEAN_MOTION_DDOT":"0.0000000000000","MEAN_MOTION_DOT":"0.00000424"}];
